{"type": "FeatureCollection", "features": [ {"type": "Feature", "properties": {"norad_id": 40118, "name": "GAOFEN-2", "group": "resource", "lat": -32.16205916517943, "lon": -129.6703535698027, "alt_km": 637.0553952040382, "timestamp": "2025-12-22T05:49:03.139388+00:00", "meta": {"OBJECT_NAME": "GAOFEN-2", "OBJECT_ID": "2014-049A", "EPOCH": "2025-12-21T20:45:08.248320", "MEAN_MOTION": 14.80622726, "ECCENTRICITY": 0.0008761, "INCLINATION": 98.0376, "RA_OF_ASC_NODE": 55.049, "ARG_OF_PERICENTER": 87.859, "MEAN_ANOMALY": 272.3625, "EPHEMERIS_TYPE": 0, "CLASSIFICATION_TYPE": "U", "NORAD_CAT_ID": 40118, "ELEMENT_SET_NO": 999, "REV_AT_EPOCH": 61299, "BSTAR": 8.6738e-05, "MEAN_MOTION_DOT": 6.13e-06, "MEAN_MOTION_DDOT": 0}, "tle": {"line1": "1 40118U 14049A   25355.86467880  .00000613  00000+0  86738-4 0  9994", "line2": "2 40118  98.0376  55.0490 0008761  87.8590 272.3625 14.80622726612993"}}, "geometry": {"type": "Point", "coordinates": [-129.6703535698027, -32.16205916517943]}}, {"type": "Feature", "properties": {"norad_id": 40143, "name": "YAOGAN-21", "group": "resource", "lat": -27.491522562110156, "lon": -144.6161753448715, "alt_km": 506.223331742206, "timestamp": "2025-12-22T05:49:03.139399+00:00", "meta": {"OBJECT_NAME": "YAOGAN-21", "OBJECT_ID": "2014-053A", "EPOCH": "2025-12-21T21:01:43.565952", "MEAN_MOTION": 15.23756036, "ECCENTRICITY": 0.0008874, "INCLINATION": 97.1742, "RA_OF_ASC_NODE": 38.7918, "ARG_OF_PERICENTER": 11.8367, "MEAN_ANOMALY": 348.3078, "EPHEMERIS_TYPE": 0, "CLASSIFICATION_TYPE": "U", "NORAD_CAT_ID": 40143, "ELEMENT_SET_NO": 999, "REV_AT_EPOCH": 62793, "BSTAR": 0.00010927, "MEAN_MOTION_DOT": 2.562e-05, "MEAN_MOTION_DDOT": 0}, "tle": {"line1": "1 40143U 14053A   25355.87619868  .00002562  00000+0  10927-3 0  9994", "line2": "2 40143  97.1742  38.7918 0008874  11.8367 348.3078 15.23756036627931"}}, "geometry": {"type": "Point", "coordinates": [-144.6161753448715, -27.491522562110156]}}, {"type": "Feature", "properties": {"norad_id": 40275, "name": "YAOGAN-22", "group": "resource", "lat": 46.57300213659955, "lon": -28.63448460447612, "alt_km": 1197.8610541666658, "timestamp": "2025-12-22T05:49:03.139409+00:00", "meta": {"OBJECT_NAME": "YAOGAN-22", "OBJECT_ID": "2014-063A", "EPOCH": "2025-12-21T20:01:14.576736", "MEAN_MOTION": 13.15522949, "ECCENTRICITY": 0.0006043, "INCLINATION": 100.7428, "RA_OF_ASC_NODE": 139.3823, "ARG_OF_PERICENTER": 226.3916, "MEAN_ANOMALY": 133.6694, "EPHEMERIS_TYPE": 0, "CLASSIFICATION_TYPE": "U", "NORAD_CAT_ID": 40275, "ELEMENT_SET_NO": 999, "REV_AT_EPOCH": 53649, "BSTAR": 7.0189e-05, "MEAN_MOTION_DOT": -2e-07, "MEAN_MOTION_DDOT": 0}, "tle": {"line1": "1 40275U 14063A   25355.83419649 -.00000020  00000+0  70189-4 0  9997", "line2": "2 40275 100.7428 139.3823 0006043 226.3916 133.6694 13.15522949536493"}}, "geometry": {"type": "Point", "coordinates": [-28.63448460447612, 46.57300213659955]}}, {"type": "Feature", "properties": {"norad_id": 40298, "name": "ASNARO", "group": "resource", "lat": 64.45126323934191, "lon": -92.34414153080341, "alt_km": 496.8653945075139, "timestamp": "2025-12-22T05:49:03.139420+00:00", "meta": {"OBJECT_NAME": "ASNARO", "OBJECT_ID": "2014-070A", "EPOCH": "2025-12-21T19:50:02.610240", "MEAN_MOTION": 15.19661836, "ECCENTRICITY": 0.0005686, "INCLINATION": 97.3648, "RA_OF_ASC_NODE": 71.5512, "ARG_OF_PERICENTER": 97.7377, "MEAN_ANOMALY": 262.4504, "EPHEMERIS_TYPE": 0, "CLASSIFICATION_TYPE": "U", "NORAD_CAT_ID": 40298, "ELEMENT_SET_NO": 999, "REV_AT_EPOCH": 61707, "BSTAR": 0.00033723, "MEAN_MOTION_DOT": 7.13e-05, "MEAN_MOTION_DDOT": 0}, "tle": {"line1": "1 40298U 14070A   25355.82641910  .00007130  00000+0  33723-3 0  9997", "line2": "2 40298  97.3648  71.5512 0005686  97.7377 262.4504 15.19661836617078"}}, "geometry": {"type": "Point", "coordinates": [-92.34414153080341, 64.45126323934191]}}, {"type": "Feature", "properties": {"norad_id": 40310, "name": "YAOGAN-24", "group": "resource", "lat": 43.97440249573036, "lon": 119.4661876220832, "alt_km": 633.1089868710387, "timestamp": "2025-12-22T05:49:03.139430+00:00", "meta": {"OBJECT_NAME": "YAOGAN-24", "OBJECT_ID": "2014-072A", "EPOCH": "2025-12-21T19:51:20.866176", "MEAN_MOTION": 14.76195173, "ECCENTRICITY": 0.0015128, "INCLINATION": 98.1228, "RA_OF_ASC_NODE": 126.9695, "ARG_OF_PERICENTER": 110.6393, "MEAN_ANOMALY": 249.644, "EPHEMERIS_TYPE": 0, "CLASSIFICATION_TYPE": "U", "NORAD_CAT_ID": 40310, "ELEMENT_SET_NO": 999, "REV_AT_EPOCH": 59755, "BSTAR": 0.00014151, "MEAN_MOTION_DOT": 9.28e-06, "MEAN_MOTION_DDOT": 0}, "tle": {"line1": "1 40310U 14072A   25355.82732484  .00000928  00000+0  14151-3 0  9993", "line2": "2 40310  98.1228 126.9695 0015128 110.6393 249.6440 14.76195173597552"}}, "geometry": {"type": "Point", "coordinates": [119.4661876220832, 43.97440249573036]}}, {"type": "Feature", "properties": {"norad_id": 40336, "name": "CBERS 4", "group": "resource", "lat": -16.102322294394913, "lon": -128.49011075010517, "alt_km": 778.252599288734, "timestamp": "2025-12-22T05:49:03.139445+00:00", "meta": {"OBJECT_NAME": "CBERS 4", "OBJECT_ID": "2014-079A", "EPOCH": "2025-12-21T20:32:33.336960", "MEAN_MOTION": 14.35520411, "ECCENTRICITY": 0.0001832, "INCLINATION": 98.33, "RA_OF_ASC_NODE": 53.5608, "ARG_OF_PERICENTER": 101.6626, "MEAN_ANOMALY": 258.4766, "EPHEMERIS_TYPE": 0, "CLASSIFICATION_TYPE": "U", "NORAD_CAT_ID": 40336, "ELEMENT_SET_NO": 999, "REV_AT_EPOCH": 57851, "BSTAR": 2.5005e-05, "MEAN_MOTION_DOT": 3e-07, "MEAN_MOTION_DDOT": 0}, "tle": {"line1": "1 40336U 14079A   25355.85594140  .00000030  00000+0  25005-4 0  9991", "line2": "2 40336  98.3300  53.5608 0001832 101.6626 258.4766 14.35520411578514"}}, "geometry": {"type": "Point", "coordinates": [-128.49011075010517, -16.102322294394913]}}, {"type": "Feature", "properties": {"norad_id": 40362, "name": "YAOGAN-26", "group": "resource", "lat": 77.77852171768184, "lon": -148.49679492638936, "alt_km": 440.5652997354, "timestamp": "2025-12-22T05:49:03.139457+00:00", "meta": {"OBJECT_NAME": "YAOGAN-26", "OBJECT_ID": "2014-088A", "EPOCH": "2025-12-21T20:01:33.132864", "MEAN_MOTION": 15.39586783, "ECCENTRICITY": 0.000495, "INCLINATION": 97.0638, "RA_OF_ASC_NODE": 356.185, "ARG_OF_PERICENTER": 2.5848, "MEAN_ANOMALY": 357.5423, "EPHEMERIS_TYPE": 0, "CLASSIFICATION_TYPE": "U", "NORAD_CAT_ID": 40362, "ELEMENT_SET_NO": 999, "REV_AT_EPOCH": 61034, "BSTAR": 0.00024653, "MEAN_MOTION_DOT": 9.63e-05, "MEAN_MOTION_DDOT": 0}, "tle": {"line1": "1 40362U 14088A   25355.83441126  .00009630  00000+0  24653-3 0  9995", "line2": "2 40362  97.0638 356.1850 0004950   2.5848 357.5423 15.39586783610341"}}, "geometry": {"type": "Point", "coordinates": [-148.49679492638936, 77.77852171768184]}}, {"type": "Feature", "properties": {"norad_id": 40376, "name": "SMAP", "group": "resource", "lat": -81.85588090818221, "lon": 93.68818596741417, "alt_km": 690.5759625523215, "timestamp": "2025-12-22T05:49:03.139468+00:00", "meta": {"OBJECT_NAME": "SMAP", "OBJECT_ID": "2015-003A", "EPOCH": "2025-12-21T18:44:34.621728", "MEAN_MOTION": 14.63355452, "ECCENTRICITY": 0.0001228, "INCLINATION": 98.1288, "RA_OF_ASC_NODE": 0.3745, "ARG_OF_PERICENTER": 91.2075, "MEAN_ANOMALY": 268.9268, "EPHEMERIS_TYPE": 0, "CLASSIFICATION_TYPE": "U", "NORAD_CAT_ID": 40376, "ELEMENT_SET_NO": 999, "REV_AT_EPOCH": 58167, "BSTAR": 9.0813e-05, "MEAN_MOTION_DOT": 4.22e-06, "MEAN_MOTION_DDOT": 0}, "tle": {"line1": "1 40376U 15003A   25355.78095627  .00000422  00000+0  90813-4 0  9995", "line2": "2 40376  98.1288   0.3745 0001228  91.2075 268.9268 14.63355452581670"}}, "geometry": {"type": "Point", "coordinates": [93.68818596741417, -81.85588090818221]}}, {"type": "Feature", "properties": {"norad_id": 40536, "name": "KOMPSAT-3A", "group": "resource", "lat": -19.817031784732965, "lon": 148.32867527752197, "alt_km": 439.1044882328342, "timestamp": "2025-12-22T05:49:03.139478+00:00", "meta": {"OBJECT_NAME": "KOMPSAT-3A", "OBJECT_ID": "2015-014A", "EPOCH": "2025-12-21T21:10:45.871104", "MEAN_MOTION": 15.44255996, "ECCENTRICITY": 0.0005543, "INCLINATION": 97.6796, "RA_OF_ASC_NODE": 330.7358, "ARG_OF_PERICENTER": 106.6596, "MEAN_ANOMALY": 253.526, "EPHEMERIS_TYPE": 0, "CLASSIFICATION_TYPE": "U", "NORAD_CAT_ID": 40536, "ELEMENT_SET_NO": 999, "REV_AT_EPOCH": 59436, "BSTAR": 0.00037513, "MEAN_MOTION_DOT": 0.00017177, "MEAN_MOTION_DDOT": 0}, "tle": {"line1": "1 40536U 15014A   25355.88247536  .00017177  00000+0  37513-3 0  9996", "line2": "2 40536  97.6796 330.7358 0005543 106.6596 253.5260 15.44255996594363"}}, "geometry": {"type": "Point", "coordinates": [148.32867527752197, -19.817031784732965]}}, {"type": "Feature", "properties": {"norad_id": 40697, "name": "SENTINEL-2A", "group": "resource", "lat": 71.29837258291771, "lon": -84.89101416223647, "alt_km": 781.399408207225, "timestamp": "2025-12-22T05:49:03.139489+00:00", "meta": {"OBJECT_NAME": "SENTINEL-2A", "OBJECT_ID": "2015-028A", "EPOCH": "2025-12-21T19:15:03.496320", "MEAN_MOTION": 14.3080883, "ECCENTRICITY": 0.0001076, "INCLINATION": 98.5741, "RA_OF_ASC_NODE": 68.2076, "ARG_OF_PERICENTER": 87.6515, "MEAN_ANOMALY": 272.4791, "EPHEMERIS_TYPE": 0, "CLASSIFICATION_TYPE": "U", "NORAD_CAT_ID": 40697, "ELEMENT_SET_NO": 999, "REV_AT_EPOCH": 54836, "BSTAR": 7.5727e-05, "MEAN_MOTION_DOT": 1.55e-06, "MEAN_MOTION_DDOT": 0}, "tle": {"line1": "1 40697U 15028A   25355.80212380  .00000155  00000+0  75727-4 0  9998", "line2": "2 40697  98.5741  68.2076 0001076  87.6515 272.4791 14.30808830548360"}}, "geometry": {"type": "Point", "coordinates": [-84.89101416223647, 71.29837258291771]}}]}